[{"OBJECT_NAME":"IONOSFERA-M 1","OBJECT_ID":"2024-199A","EPOCH":"2026-03-09T23:07:06.038112","MEAN_MOTION":14.22735344,"ECCENTRICITY":0.00020871,"INCLINATION":98.7325,"RA_OF_ASC_NODE":303.1052,"ARG_OF_PERICENTER":75.9685,"MEAN_ANOMALY":284.1725,"EPHEMERIS_TYPE":0,"CLASSIFICATION_TYPE":"U","NORAD_CAT_ID":61735,"ELEMENT_SET_NO":999,"REV_AT_EPOCH":11359,"BSTAR":4.8219719e-5,"MEAN_MOTION_DOT":6.4e-7,"MEAN_MOTION_DDOT":0},{"OBJECT_NAME":"DMSP 5D-2 F13 DEB","OBJECT_ID":"1995-015CT","EPOCH":"2026-03-09T11:02:13.176672","MEAN_MOTION":14.20009801,"ECCENTRICITY":0.00477517,"INCLINATION":99.0372,"RA_OF_ASC_NODE":72.9611,"ARG_OF_PERICENTER":44.1125,"MEAN_ANOMALY":316.3844,"EPHEMERIS_TYPE":0,"CLASSIFICATION_TYPE":"U","NORAD_CAT_ID":40504,"ELEMENT_SET_NO":999,"REV_AT_EPOCH":56483,"BSTAR":0.0018044517,"MEAN_MOTION_DOT":3.838e-5,"MEAN_MOTION_DDOT":0}]
